{"type": "Feature", "properties": {"name": "Cienfuegos", "source": "https://www.openstreetmap.org/relation/1854632", "licencia": "ODbL 1.0, \u00a9 OpenStreetMap contributors", "fecha": "2026-10-07"}, "geometry": {"type": "Polygon", "coordinates": [[[-80.9429984, 22.3578514], [-80.9393542, 22.3544157], [-80.9359776, 22.3528804], [-80.9231117, 22.3519881], [-80.9151221, 22.35978], [-80.9107233, 22.3545014], [-80.9059139, 22.3508497], [-80.91568, 22.3367389], [-80.9077192, 22.3288393], [-80.9103799, 22.3263979], [-80.9080839, 22.324016], [-80.914135, 22.3185176], [-80.9067965, 22.31421], [-80.9150362, 22.3060511], [-80.912633, 22.3022792], [-80.9247661, 22.2880429], [-80.932417, 22.2788513], [-80.9199716, 22.2526391], [-80.9150663, 22.250139], [-80.9083844, 22.2490643], [-80.9036637, 22.2508914], [-80.8957673, 22.2467406], [-80.9033407, 22.2209423], [-80.8774854, 22.2021867], [-80.8616067, 22.1961471], [-80.8559419, 22.1932066], [-80.8508778, 22.1946371], [-80.8431531, 22.1829544], [-80.828991, 22.1750859], [-80.8207083, 22.1593872], [-80.800581, 22.1429714], [-80.7956028, 22.1395925], [-80.7879757, 22.1374589], [-80.7838011, 22.1403876], [-80.7844878, 22.1443626], [-80.7834149, 22.1508417], [-80.7806254, 22.1545779], [-80.774231, 22.1615732], [-80.770669, 22.160977], [-80.7785654, 22.1440446], [-80.7795525, 22.1363329], [-80.7735873, 22.1343055], [-80.7656479, 22.137764], [-80.746851, 22.1324372], [-80.7399846, 22.1339875], [-80.7380534, 22.132954], [-80.7395554, 22.1311651], [-80.7470227, 22.1267126], [-80.7480956, 22.1244466], [-80.7421732, 22.1209878], [-80.7338477, 22.1302905], [-80.7226897, 22.1289388], [-80.7191277, 22.1271499], [-80.703197, 22.1234451], [-80.6996012, 22.1264144], [-80.6970263, 22.1310458], [-80.6965327, 22.1336099], [-80.6971121, 22.1371478], [-80.6959748, 22.1380223], [-80.6934858, 22.1381814], [-80.6911254, 22.1367503], [-80.6877995, 22.1339676], [-80.6865335, 22.1309265], [-80.6862545, 22.1258976], [-80.6797528, 22.1254404], [-80.6681443, 22.1222202], [-80.6653977, 22.1239297], [-80.6646068, 22.1301285], [-80.661192, 22.130211], [-80.6564713, 22.1209878], [-80.6508923, 22.127945], [-80.6466869, 22.1285533], [-80.6358719, 22.127786], [-80.6293488, 22.1223395], [-80.6152726, 22.120471], [-80.6077577, 22.1085226], [-80.6028146, 22.0862881], [-80.6069831, 22.0803982], [-80.5937237, 22.0474344], [-80.5937517, 22.045919], [-80.6805045, 21.4272075], [-80.2228643, 21.4151395], [-80.1366865, 21.7477155], [-80.1137705, 21.821983], [-80.1136559, 21.8246278], [-80.11334, 21.8250106], [-80.1127929, 21.8251948], [-80.1121223, 21.8257974], [-80.1116829, 21.8264056], [-80.1116615, 21.8266845], [-80.1115113, 21.8271824], [-80.1114684, 21.8275609], [-80.1113396, 21.82778], [-80.1111894, 21.8276804], [-80.1111036, 21.8278199], [-80.1109652, 21.8281256], [-80.1109319, 21.8284573], [-80.1109319, 21.8287959], [-80.110653, 21.8290748], [-80.1103526, 21.829274], [-80.1098805, 21.8293536], [-80.1091627, 21.8293805], [-80.108593, 21.8292939], [-80.1080781, 21.8290549], [-80.1074676, 21.8286834], [-80.1070695, 21.8283577], [-80.1066404, 21.8278995], [-80.1062327, 21.8275012], [-80.1058465, 21.8272223], [-80.1052456, 21.8270032], [-80.1046663, 21.8266247], [-80.1041513, 21.826067], [-80.1037222, 21.8254694], [-80.1033048, 21.8250979], [-80.1029615, 21.8252572], [-80.1025967, 21.8256158], [-80.1020817, 21.8259544], [-80.1018242, 21.826293], [-80.1017813, 21.8266914], [-80.1019315, 21.8270699], [-80.1022963, 21.8274285], [-80.1025752, 21.8277472], [-80.1026606, 21.8281614], [-80.1024894, 21.8286634], [-80.1023392, 21.8291017], [-80.1021461, 21.8294005], [-80.1022319, 21.8296594], [-80.1025205, 21.8298118], [-80.1028327, 21.8300179], [-80.1030999, 21.8303894], [-80.1034217, 21.8306085], [-80.1037651, 21.8306484], [-80.1040655, 21.8308476], [-80.1042371, 21.8311254], [-80.1044732, 21.8314441], [-80.1046877, 21.8318624], [-80.1047092, 21.8321811], [-80.1046448, 21.8324201], [-80.1042801, 21.8326592], [-80.1039582, 21.8327787], [-80.1037007, 21.8330177], [-80.1035076, 21.8331571], [-80.103808, 21.8335157], [-80.1039914, 21.8335236], [-80.1040226, 21.8337746], [-80.1037769, 21.8341411], [-80.103529, 21.8342327], [-80.103293, 21.834412], [-80.103014, 21.8345713], [-80.1032072, 21.8347904], [-80.1033359, 21.8349697], [-80.1035934, 21.8349299], [-80.1038938, 21.8350494], [-80.1041298, 21.8351291], [-80.1042586, 21.8354876], [-80.1044303, 21.8358461], [-80.1044517, 21.836125], [-80.1042157, 21.8362843], [-80.1042371, 21.8367026], [-80.1042586, 21.8371209], [-80.1043991, 21.8374475], [-80.1045805, 21.8376786], [-80.1046019, 21.8379973], [-80.1047425, 21.8382243], [-80.1051072, 21.8382243], [-80.1054173, 21.8381964], [-80.1055031, 21.8384155], [-80.1053958, 21.8388537], [-80.1052027, 21.8392919], [-80.1049452, 21.8396903], [-80.1044946, 21.8399293], [-80.1040655, 21.8401484], [-80.1036792, 21.8405866], [-80.1037222, 21.8410447], [-80.1039582, 21.8413434], [-80.1042371, 21.8415028], [-80.1043015, 21.8418015], [-80.1043015, 21.8420206], [-80.1041513, 21.8422994], [-80.1039796, 21.8424787], [-80.1037865, 21.8423791], [-80.1035719, 21.8422795], [-80.1029615, 21.8420883], [-80.1024991, 21.8419011], [-80.102027, 21.8417617], [-80.1014691, 21.8416023], [-80.1008897, 21.8415426], [-80.1002889, 21.841682], [-80.0998383, 21.841921], [-80.0994735, 21.8420405], [-80.0989918, 21.8421082], [-80.0987343, 21.8424668], [-80.0984339, 21.842885], [-80.0983481, 21.8435821], [-80.0981979, 21.8439008], [-80.0980262, 21.8443987], [-80.0980262, 21.8447572], [-80.0983481, 21.8449166], [-80.0995619, 21.8455525], [-80.0997636, 21.8462748], [-80.0990143, 21.8472646], [-80.0994178, 21.8478531], [-80.1009453, 21.8476123], [-80.1021558, 21.8480136], [-80.1023287, 21.8486289], [-80.1016658, 21.8490302], [-80.1009165, 21.8495652], [-80.0998213, 21.8506352], [-80.0995907, 21.851946], [-80.1006859, 21.8536045], [-80.1004398, 21.8542992], [-80.1004678, 21.8546739], [-80.1006485, 21.8549601], [-80.1010241, 21.8551469], [-80.1017243, 21.8552629], [-80.1025227, 21.8553962], [-80.1028574, 21.8557439], [-80.1030204, 21.8559853], [-80.102989, 21.8562048], [-80.1021558, 21.856761], [-80.1017768, 21.8570673], [-80.101006, 21.8571679], [-80.1004488, 21.8576611], [-80.1001398, 21.8584024], [-80.0995404, 21.8597481], [-80.0995136, 21.8600839], [-80.0998591, 21.8607874], [-80.0998695, 21.8611126], [-80.0997273, 21.8615263], [-80.0993276, 21.8621375], [-80.0992675, 21.8625835], [-80.098826, 21.8633405], [-80.0987549, 21.8637158], [-80.0989197, 21.8644988], [-80.0989036, 21.8648673], [-80.0989, 21.8652533], [-80.0991037, 21.8653773], [-80.0994393, 21.865507], [-80.0998214, 21.8657316], [-80.0999003, 21.8660231], [-80.099873, 21.8662167], [-80.0997827, 21.8664336], [-80.0994316, 21.8667702], [-80.0989611, 21.86713], [-80.0988043, 21.8673298], [-80.098339, 21.8676815], [-80.0978109, 21.8678282], [-80.0975091, 21.8677882], [-80.0970517, 21.8681113], [-80.0966445, 21.8685745], [-80.0967778, 21.8691511], [-80.0967879, 21.8696202], [-80.0966471, 21.8697627], [-80.0961678, 21.8699168], [-80.0955958, 21.8708736], [-80.0954386, 21.8712878], [-80.0950677, 21.871737], [-80.0946717, 21.8721454], [-80.0945334, 21.8726238], [-80.0941876, 21.8728513], [-80.0940053, 21.8730321], [-80.0937853, 21.873388], [-80.0933389, 21.8735863], [-80.0923142, 21.8739014], [-80.0912204, 21.8742806], [-80.0906798, 21.8745023], [-80.0900134, 21.8754007], [-80.0900385, 21.8758907], [-80.0898185, 21.8762757], [-80.0897368, 21.8767599], [-80.0895922, 21.8776642], [-80.0895671, 21.8780434], [-80.0895231, 21.8786617], [-80.0897305, 21.8792918], [-80.0897745, 21.8795834], [-80.0896865, 21.8798051], [-80.0888881, 21.8803651], [-80.0876183, 21.8810127], [-80.087021, 21.8813452], [-80.0867822, 21.8816544], [-80.086801, 21.8822611], [-80.086537, 21.8829494], [-80.0863295, 21.8834219], [-80.0857763, 21.8841044], [-80.0856066, 21.8845128], [-80.0857638, 21.8849094], [-80.085682, 21.8852945], [-80.0852986, 21.8859945], [-80.0851854, 21.8865545], [-80.0851603, 21.8867411], [-80.0856129, 21.8874528], [-80.0856506, 21.8877853], [-80.0854243, 21.8887886], [-80.0851037, 21.8897803], [-80.0851917, 21.8909352], [-80.085242, 21.8915944], [-80.0851351, 21.8919152], [-80.0845568, 21.8921602], [-80.0835509, 21.892516], [-80.0832492, 21.892551], [-80.0830103, 21.8924285], [-80.0827966, 21.892201], [-80.0822999, 21.8922594], [-80.0821302, 21.8925452], [-80.0817719, 21.8929535], [-80.0815896, 21.8930468], [-80.0813758, 21.8930177], [-80.0811432, 21.8928368], [-80.0808918, 21.8927727], [-80.0805271, 21.8929768], [-80.080326, 21.8932918], [-80.0776077, 21.8962853], [-80.0757408, 21.8970419], [-80.0741315, 21.8976192], [-80.0702906, 21.899869], [-80.0690031, 21.9007848], [-80.0679088, 21.9021585], [-80.0666642, 21.9032137], [-80.0655914, 21.9047268], [-80.0648189, 21.9065583], [-80.0642395, 21.9075338], [-80.0632096, 21.9084098], [-80.0620412, 21.9104782], [-80.0611282, 21.9111969], [-80.0608492, 21.9120728], [-80.0613427, 21.9126004], [-80.0622547, 21.9134962], [-80.0619436, 21.9141233], [-80.0605059, 21.9143024], [-80.0577593, 21.9168904], [-80.0556135, 21.9173084], [-80.0533605, 21.920175], [-80.052066, 21.9212784], [-80.0472057, 21.9220798], [-80.0439962, 21.9200631], [-80.0399699, 21.922024], [-80.0364374, 21.926503], [-80.0371843, 21.9296427], [-80.038223, 21.9299397], [-80.0385846, 21.9309493], [-80.0379056, 21.9341682], [-80.0387909, 21.9349336], [-80.0390003, 21.9357188], [-80.0384015, 21.9366742], [-80.0383607, 21.9375101], [-80.0386437, 21.9388835], [-80.0379733, 21.9395678], [-80.0366377, 21.9393764], [-80.0358013, 21.940078], [-80.0358877, 21.9405208], [-80.0392578, 21.9415992], [-80.0400369, 21.944066], [-80.0397217, 21.9444729], [-80.0390631, 21.9445613], [-80.0382308, 21.9440078], [-80.0379167, 21.9443719], [-80.0384978, 21.945144], [-80.0386705, 21.9470814], [-80.036651, 21.9485809], [-80.0351466, 21.9489858], [-80.0338078, 21.9486226], [-80.0328046, 21.948716], [-80.0310421, 21.9497574], [-80.0289276, 21.9501837], [-80.0264526, 21.9513051], [-80.0273558, 21.9565364], [-80.0313664, 21.9634448], [-80.0326812, 21.9647857], [-80.0333237, 21.96464], [-80.0341946, 21.9633159], [-80.035194, 21.9636999], [-80.0373641, 21.9634218], [-80.0398743, 21.9624498], [-80.0432781, 21.9622451], [-80.044359, 21.9622409], [-80.0443957, 21.9636072], [-80.0447989, 21.9642011], [-80.0452495, 21.9643304], [-80.046258, 21.9639971], [-80.0464833, 21.9641414], [-80.0467569, 21.965599], [-80.0465159, 21.9659376], [-80.0464048, 21.9769439], [-80.0458045, 21.9882936], [-80.0356413, 21.9989279], [-80.0440264, 22.0117348], [-80.0450564, 22.0172651], [-80.0458888, 22.0269198], [-80.0480971, 22.0289172], [-80.0630193, 22.032549], [-80.065427, 22.0472756], [-80.0876919, 22.0585251], [-80.0878429, 22.0686451], [-80.0804332, 22.0768612], [-80.0797363, 22.0970612], [-80.0894784, 22.1022014], [-80.0894278, 22.1130295], [-80.1053124, 22.1321316], [-80.0926791, 22.1425092], [-80.0953746, 22.1494306], [-80.0946879, 22.1528439], [-80.0936151, 22.1548363], [-80.0933039, 22.1555616], [-80.091582, 22.1559541], [-80.0903079, 22.1563466], [-80.0890982, 22.1566497], [-80.0882131, 22.1568782], [-80.087505, 22.1571614], [-80.0883794, 22.1579961], [-80.0888836, 22.1583439], [-80.0892913, 22.1585426], [-80.0888729, 22.1597449], [-80.088079, 22.1599536], [-80.0874674, 22.1600032], [-80.0878108, 22.1605795], [-80.0882721, 22.1610167], [-80.0881219, 22.161762], [-80.0877249, 22.1618415], [-80.0880575, 22.1623184], [-80.0886369, 22.1625569], [-80.0897312, 22.1633021], [-80.08986, 22.1638883], [-80.0895488, 22.1647229], [-80.0899673, 22.1653489], [-80.0900424, 22.1659152], [-80.0886369, 22.1671175], [-80.0920379, 22.1698796], [-80.0910402, 22.1721052], [-80.090096, 22.1758806], [-80.1006103, 22.1810667], [-80.102799, 22.1820801], [-80.1063326, 22.1843735], [-80.1038502, 22.1885331], [-80.0993014, 22.1924914], [-80.0916195, 22.2069943], [-80.0901175, 22.2089809], [-80.0851748, 22.2159282], [-80.0839947, 22.2179941], [-80.0793276, 22.2208148], [-80.0785653, 22.2234134], [-80.078499, 22.2248253], [-80.0785352, 22.2273784], [-80.0791884, 22.2308719], [-80.0779909, 22.2412513], [-80.0915272, 22.242334], [-80.095911, 22.2428499], [-80.108731, 22.2437228], [-80.108047, 22.2523087], [-80.1139896, 22.2563004], [-80.1179593, 22.2586041], [-80.1164735, 22.2602583], [-80.1156351, 22.2621919], [-80.1162705, 22.2653954], [-80.121135, 22.2682153], [-80.1305497, 22.2767934], [-80.1327106, 22.2833924], [-80.1393528, 22.283884], [-80.1377448, 22.292774], [-80.1378252, 22.2959913], [-80.1403578, 22.29707], [-80.1412824, 22.2974233], [-80.1479154, 22.2974419], [-80.1586771, 22.3106447], [-80.1589387, 22.3127726], [-80.1498003, 22.3186163], [-80.1518275, 22.3237441], [-80.1544025, 22.3241411], [-80.1553037, 22.3223943], [-80.1566341, 22.3228211], [-80.1563766, 22.3266421], [-80.1437595, 22.3297187], [-80.1414058, 22.3319091], [-80.142584, 22.3348823], [-80.1678751, 22.3316236], [-80.1731158, 22.3274499], [-80.174646, 22.3209824], [-80.1902041, 22.328328], [-80.19732, 22.3396763], [-80.2038002, 22.3410457], [-80.2142501, 22.3420182], [-80.2128554, 22.3484485], [-80.2329419, 22.3464201], [-80.2356008, 22.3696661], [-80.2357553, 22.369866], [-80.236027, 22.3699519], [-80.2360772, 22.3702434], [-80.2359282, 22.3704958], [-80.236375, 22.3727979], [-80.2427046, 22.3681068], [-80.2434969, 22.3708329], [-80.2456856, 22.3745236], [-80.2482176, 22.3765078], [-80.2491188, 22.3782142], [-80.2490759, 22.3798016], [-80.2532687, 22.3872499], [-80.244323, 22.3892557], [-80.2323175, 22.3981934], [-80.2209235, 22.3961103], [-80.2205587, 22.427413], [-80.2209342, 22.4279981], [-80.2201295, 22.4300014], [-80.2198184, 22.4310427], [-80.2203012, 22.4328872], [-80.2211595, 22.4345533], [-80.2218354, 22.4363085], [-80.2220392, 22.4389662], [-80.2221251, 22.4406916], [-80.2216208, 22.4427642], [-80.2247322, 22.4434087], [-80.2247841, 22.4433945], [-80.2298713, 22.4420006], [-80.2400183, 22.4445051], [-80.2258802, 22.4667594], [-80.2279186, 22.4672155], [-80.2334333, 22.466462], [-80.2372527, 22.4666008], [-80.2291705, 22.4882552], [-80.2340959, 22.4938071], [-80.229647, 22.5004347], [-80.2325519, 22.5064085], [-80.232839, 22.5237743], [-80.23922, 22.5238618], [-80.2516704, 22.5170443], [-80.2454696, 22.5367951], [-80.2388204, 22.5409828], [-80.2427459, 22.5502344], [-80.2466834, 22.5559614], [-80.246619, 22.5582106], [-80.2502775, 22.5613514], [-80.2526379, 22.5627384], [-80.2536249, 22.5631149], [-80.2559426, 22.5626903], [-80.2547085, 22.5649775], [-80.2552074, 22.565255], [-80.2542526, 22.5669937], [-80.2545637, 22.5672166], [-80.2543759, 22.5675881], [-80.2537268, 22.5674048], [-80.2527988, 22.5690495], [-80.2871893, 22.5812136], [-80.3035404, 22.5658587], [-80.315352, 22.5682407], [-80.3106942, 22.5622078], [-80.3175694, 22.5520165], [-80.3199721, 22.5288501], [-80.3227401, 22.5299402], [-80.3478348, 22.5321898], [-80.3531671, 22.5309114], [-80.3528023, 22.5300096], [-80.3567505, 22.5279384], [-80.3680042, 22.524273], [-80.3680345, 22.5241508], [-80.3717808, 22.5090497], [-80.3847804, 22.5136466], [-80.3897194, 22.515393], [-80.3908531, 22.5209122], [-80.3879931, 22.5229236], [-80.3882289, 22.5257185], [-80.3880143, 22.52665], [-80.3881753, 22.5276014], [-80.3878427, 22.5283942], [-80.3874028, 22.5301483], [-80.3875959, 22.5317835], [-80.3870487, 22.533369], [-80.3868663, 22.5349843], [-80.3870332, 22.548599], [-80.4106736, 22.5489463], [-80.4114247, 22.554495], [-80.4113388, 22.5563776], [-80.4111865, 22.5586622], [-80.409472, 22.5611136], [-80.4008246, 22.5697133], [-80.4226943, 22.5636123], [-80.4345346, 22.5805495], [-80.4421091, 22.5854746], [-80.4427207, 22.5846821], [-80.4439759, 22.5833349], [-80.4448879, 22.5820768], [-80.446583, 22.58068], [-80.4478061, 22.5800955], [-80.4488683, 22.5795507], [-80.4506278, 22.5787086], [-80.4531598, 22.5776387], [-80.4539108, 22.5769155], [-80.4555631, 22.5763211], [-80.4575372, 22.5747856], [-80.4587817, 22.5735076], [-80.459801, 22.5710111], [-80.4608739, 22.5699411], [-80.4638243, 22.5674841], [-80.4649615, 22.5663745], [-80.4654551, 22.5657305], [-80.4661739, 22.5646308], [-80.4658735, 22.5640363], [-80.4666031, 22.5637391], [-80.4668871, 22.5634466], [-80.4674399, 22.5628771], [-80.4681373, 22.5608361], [-80.4686201, 22.5600039], [-80.4701328, 22.5595085], [-80.4705727, 22.5579926], [-80.471592, 22.5566451], [-80.4726112, 22.5556246], [-80.4738772, 22.5553669], [-80.474242, 22.5553868], [-80.4750574, 22.5547328], [-80.475272, 22.5535438], [-80.4758191, 22.5526818], [-80.476495, 22.5517207], [-80.4774017, 22.5513615], [-80.4783833, 22.5496993], [-80.478909, 22.5490652], [-80.4798854, 22.5483022], [-80.481205, 22.5477572], [-80.4815912, 22.5470835], [-80.4827392, 22.5466177], [-80.4837906, 22.5469249], [-80.4844666, 22.5466177], [-80.4854965, 22.5461917], [-80.485754, 22.5453791], [-80.4865158, 22.5451413], [-80.4868591, 22.5445567], [-80.4877067, 22.5441306], [-80.4887581, 22.5440415], [-80.4896808, 22.5443288], [-80.4901207, 22.5442], [-80.4904211, 22.543764], [-80.4905498, 22.5435262], [-80.4921162, 22.5430703], [-80.4927278, 22.5428622], [-80.4934887, 22.5422047], [-80.4957265, 22.5407318], [-80.5000158, 22.5403248], [-80.5027056, 22.5402859], [-80.5082347, 22.5388266], [-80.5143483, 22.5384604], [-80.5226837, 22.5390712], [-80.5302229, 22.5372409], [-80.5341196, 22.5361437], [-80.536099, 22.5353757], [-80.5367374, 22.5349447], [-80.5368394, 22.5346796], [-80.5367803, 22.5345953], [-80.5367931, 22.5344679], [-80.5368585, 22.5343477], [-80.5369628, 22.5342064], [-80.5374187, 22.5338397], [-80.5377138, 22.5336985], [-80.5378921, 22.5336725], [-80.5385908, 22.533836], [-80.5386499, 22.5338125], [-80.5386767, 22.5337679], [-80.5386579, 22.5337233], [-80.5382931, 22.5333591], [-80.5382703, 22.5332761], [-80.5382945, 22.5332167], [-80.5383937, 22.5331485], [-80.5384916, 22.5331374], [-80.5386432, 22.5331572], [-80.5391058, 22.5333926], [-80.5391809, 22.5333641], [-80.5392078, 22.533291], [-80.5387732, 22.5327744], [-80.5386069, 22.5326283], [-80.5383468, 22.5325044], [-80.5382073, 22.5324053], [-80.5381697, 22.5322492], [-80.5381751, 22.5320139], [-80.5383065, 22.5319222], [-80.538564, 22.5318578], [-80.5393741, 22.5318925], [-80.5395055, 22.5317909], [-80.539543, 22.531667], [-80.5395484, 22.5312681], [-80.539653, 22.5309312], [-80.5398354, 22.530847], [-80.540058, 22.5308593], [-80.5405811, 22.5313425], [-80.5407715, 22.531397], [-80.5409727, 22.5313276], [-80.5410773, 22.5311715], [-80.540852, 22.5307231], [-80.540809, 22.5305769], [-80.540868, 22.5304778], [-80.5416137, 22.5302127], [-80.5423433, 22.5299006], [-80.5425954, 22.5295686], [-80.5426169, 22.5287609], [-80.5425364, 22.5282059], [-80.5422521, 22.5278888], [-80.5420965, 22.5277104], [-80.5420697, 22.5275023], [-80.5424345, 22.5271406], [-80.5430031, 22.5267591], [-80.5431426, 22.5266946], [-80.543341, 22.5266748], [-80.5438238, 22.5269077], [-80.5439848, 22.526816], [-80.5440465, 22.526712], [-80.5439794, 22.5265063], [-80.5433571, 22.5259365], [-80.5432659, 22.5257185], [-80.5433571, 22.5254459], [-80.5438185, 22.5248315], [-80.5443978, 22.5243806], [-80.5446795, 22.5241526], [-80.5448109, 22.5241502], [-80.5448967, 22.5242071], [-80.5448002, 22.524829], [-80.5448699, 22.5249479], [-80.5450147, 22.5250148], [-80.5451891, 22.5250247], [-80.5452749, 22.5249851], [-80.5453956, 22.5247051], [-80.5455834, 22.5243112], [-80.5457228, 22.5242369], [-80.5459455, 22.524222], [-80.5465704, 22.5243385], [-80.5467287, 22.5242616], [-80.5467904, 22.5241006], [-80.5467555, 22.5238652], [-80.5468869, 22.5237637], [-80.5470961, 22.5237537], [-80.5472812, 22.5237339], [-80.5474234, 22.5236224], [-80.5475092, 22.5231814], [-80.5473831, 22.5227503], [-80.5473295, 22.5225843], [-80.5473509, 22.5225125], [-80.5474234, 22.5225001], [-80.5475655, 22.5225694], [-80.5476862, 22.5227008], [-80.5478337, 22.5226884], [-80.5479357, 22.5226091], [-80.5480269, 22.5224183], [-80.5482039, 22.5222127], [-80.5483648, 22.5221705], [-80.5484962, 22.522235], [-80.5487323, 22.5223836], [-80.5488342, 22.5223588], [-80.5488798, 22.5222746], [-80.5488503, 22.5221581], [-80.5484748, 22.5218038], [-80.5482227, 22.5216502], [-80.5482066, 22.5214272], [-80.5484694, 22.5212489], [-80.5487484, 22.5212786], [-80.549022, 22.521348], [-80.5497274, 22.5212637], [-80.5499312, 22.5211423], [-80.5500251, 22.5209441], [-80.5499822, 22.5200645], [-80.5496228, 22.5189991], [-80.5490542, 22.517567], [-80.5486786, 22.5162637], [-80.5486572, 22.5158276], [-80.5488449, 22.5155699], [-80.5489737, 22.5152528], [-80.5489442, 22.5151363], [-80.5486491, 22.5149926], [-80.5484158, 22.5149901], [-80.548346, 22.5148811], [-80.5483836, 22.5146829], [-80.5487806, 22.5134539], [-80.5498481, 22.5115163], [-80.5500171, 22.5102253], [-80.5500197, 22.5097099], [-80.5502826, 22.509088], [-80.5502772, 22.5086568], [-80.5501056, 22.5083892], [-80.5498695, 22.5080869], [-80.5497944, 22.5078738], [-80.5498266, 22.507745], [-80.5499715, 22.5076706], [-80.5506796, 22.5075244], [-80.5507439, 22.5074848], [-80.5507332, 22.5073931], [-80.5505669, 22.5072865], [-80.550288, 22.507128], [-80.5502316, 22.5070016], [-80.550245, 22.5068628], [-80.5504489, 22.5065159], [-80.5506635, 22.5064193], [-80.5508244, 22.5064639], [-80.5510229, 22.50662], [-80.5511758, 22.5068133], [-80.5513206, 22.5068331], [-80.5514574, 22.5068009], [-80.5515459, 22.5066522], [-80.5518141, 22.5062409], [-80.5520609, 22.5059609], [-80.5520716, 22.505884], [-80.5519483, 22.5057354], [-80.5514762, 22.5056932], [-80.5510792, 22.5055793], [-80.5509076, 22.5054479], [-80.5508325, 22.5051506], [-80.550921, 22.504992], [-80.551275, 22.5047318], [-80.55179, 22.5044344], [-80.5522299, 22.5043452], [-80.5524498, 22.5043254], [-80.5524927, 22.504256], [-80.5525142, 22.5037134], [-80.552592, 22.5036142], [-80.5527422, 22.5035771], [-80.5528843, 22.5036911], [-80.5530641, 22.5039042], [-80.5532196, 22.5038992], [-80.5533913, 22.5038472], [-80.5540055, 22.5035424], [-80.5541557, 22.5033689], [-80.5542201, 22.5031013], [-80.5544132, 22.5029328], [-80.5547297, 22.5030121], [-80.5549228, 22.5029229], [-80.5549631, 22.5028436], [-80.5551052, 22.5024694], [-80.5551884, 22.5024298], [-80.5556604, 22.502519], [-80.5557275, 22.5025016], [-80.5559796, 22.502239], [-80.5559716, 22.5021225], [-80.5559179, 22.5020655], [-80.5555156, 22.5016133], [-80.5554807, 22.5014745], [-80.5555317, 22.5012577], [-80.5556068, 22.5011511], [-80.5557114, 22.5011387], [-80.5558616, 22.5012081], [-80.5561486, 22.5014212], [-80.5562693, 22.5014287], [-80.5564383, 22.5013741], [-80.5567011, 22.5012973], [-80.5570284, 22.5012527], [-80.5574146, 22.5012552], [-80.5574977, 22.5012032], [-80.557664, 22.5009851], [-80.5577472, 22.5006481], [-80.5576882, 22.5004597], [-80.5573475, 22.5003507], [-80.5570257, 22.5001822], [-80.5568969, 22.5000682], [-80.5565, 22.4994314], [-80.5564597, 22.4992108], [-80.5565321, 22.4991439], [-80.5566153, 22.4991166], [-80.556736, 22.4991166], [-80.5573529, 22.4996395], [-80.5575836, 22.4996816], [-80.557723, 22.4996494], [-80.5578008, 22.4995751], [-80.5579054, 22.4993099], [-80.5579644, 22.499082], [-80.5578142, 22.4988441], [-80.5575433, 22.4985665], [-80.5576104, 22.4984054], [-80.5577901, 22.4983336], [-80.5584097, 22.4985442], [-80.5585921, 22.4985368], [-80.5587155, 22.4984277], [-80.5587423, 22.4979767], [-80.5587208, 22.4977983], [-80.5585384, 22.4976149], [-80.5577418, 22.497273], [-80.5575138, 22.4971466], [-80.5574656, 22.4970004], [-80.5575004, 22.4969236], [-80.5575916, 22.4968343], [-80.5579913, 22.4967451], [-80.5581871, 22.4966187], [-80.558289, 22.4963908], [-80.5583963, 22.4960711], [-80.5587584, 22.495511], [-80.5592117, 22.4947106], [-80.5591956, 22.4946065], [-80.5591205, 22.4944876], [-80.5585223, 22.4939845], [-80.5581147, 22.4933005], [-80.5580986, 22.4930502], [-80.558238, 22.492909], [-80.5585411, 22.4928222], [-80.5587798, 22.4928966], [-80.5588818, 22.4930502], [-80.5589381, 22.4933526], [-80.5590132, 22.4934517], [-80.5590937, 22.4934889], [-80.5591393, 22.4934765], [-80.5592385, 22.4932336], [-80.5593324, 22.4927479], [-80.5595174, 22.4925001], [-80.5597267, 22.4923204], [-80.5601049, 22.4922523], [-80.5607432, 22.492401], [-80.5611187, 22.4923712], [-80.5615157, 22.4920788], [-80.5616927, 22.4920045], [-80.5621862, 22.4922374], [-80.5627173, 22.4923712], [-80.5630392, 22.4922771], [-80.5632377, 22.4920788], [-80.5634683, 22.4913601], [-80.5636078, 22.4911916], [-80.5638492, 22.4911619], [-80.5642569, 22.4912263], [-80.5644769, 22.4911024], [-80.5647451, 22.4906365], [-80.5650294, 22.4902995], [-80.5653673, 22.4901904], [-80.5657429, 22.4900615], [-80.5661345, 22.4896403], [-80.5664295, 22.4891198], [-80.5670035, 22.4889315], [-80.5677599, 22.4889265], [-80.5683607, 22.4888026], [-80.5691546, 22.488297], [-80.569455, 22.4877419], [-80.5695891, 22.4868349], [-80.5693102, 22.4863392], [-80.5688918, 22.4856849], [-80.568822, 22.4853776], [-80.5688542, 22.4849662], [-80.5690581, 22.4844458], [-80.5694389, 22.484198], [-80.5701685, 22.4840691], [-80.5704582, 22.4838262], [-80.570544, 22.4833801], [-80.5706835, 22.4829885], [-80.5710375, 22.4824532], [-80.5711663, 22.482017], [-80.5710912, 22.4810752], [-80.5712843, 22.4807084], [-80.5716169, 22.4806787], [-80.5722714, 22.4811446], [-80.573194, 22.4812537], [-80.5736017, 22.4809662], [-80.5742052, 22.4803565], [-80.5744654, 22.4800021], [-80.5745378, 22.4797691], [-80.5746049, 22.479551], [-80.5748838, 22.4794147], [-80.5755168, 22.4794246], [-80.5758145, 22.4794147], [-80.5759808, 22.4793428], [-80.5761391, 22.4789116], [-80.5763724, 22.4786068], [-80.5766702, 22.4785014], [-80.5768807, 22.4785262], [-80.5770886, 22.4785844], [-80.5774051, 22.4791359], [-80.5776063, 22.4791867], [-80.5777404, 22.4791594], [-80.577912, 22.4790628], [-80.5783492, 22.4785151], [-80.5784592, 22.4782127], [-80.5785397, 22.4779326], [-80.5785424, 22.4776749], [-80.5786604, 22.4774468], [-80.578824, 22.4772857], [-80.5790439, 22.4772337], [-80.579237, 22.4772263], [-80.579626, 22.4774171], [-80.5798566, 22.4773948], [-80.57998, 22.4772833], [-80.579972, 22.4770776], [-80.5797359, 22.476852], [-80.5793846, 22.4766215], [-80.5793443, 22.4764332], [-80.5793551, 22.4762274], [-80.5795616, 22.4760688], [-80.5798057, 22.4760738], [-80.5803904, 22.4763018], [-80.5807874, 22.476282], [-80.5811173, 22.476163], [-80.5812702, 22.4760168], [-80.5812675, 22.4757417], [-80.5811495, 22.4755335], [-80.5809832, 22.4752162], [-80.5810502, 22.4749671], [-80.5814391, 22.4746363], [-80.5815867, 22.474324], [-80.5816108, 22.4739472], [-80.581761, 22.4736003], [-80.5823135, 22.4732086], [-80.58296, 22.4727328], [-80.5831665, 22.4726237], [-80.5833837, 22.472651], [-80.5836345, 22.4730711], [-80.583719, 22.4732248], [-80.5838263, 22.4732446], [-80.5839095, 22.4732], [-80.5841267, 22.4729249], [-80.5846658, 22.4726312], [-80.5852211, 22.4724031], [-80.5865085, 22.4721131], [-80.5886114, 22.4715381], [-80.5897164, 22.4713374], [-80.5903977, 22.4712903], [-80.5910361, 22.471263], [-80.5914921, 22.4712209], [-80.59205, 22.4711292], [-80.5924362, 22.4711787], [-80.593037, 22.4713597], [-80.5934554, 22.4715604], [-80.5936968, 22.4721825], [-80.5939812, 22.4724304], [-80.5944425, 22.4724552], [-80.5947483, 22.4722866], [-80.5949199, 22.4719942], [-80.595097, 22.4714935], [-80.595333, 22.4711862], [-80.5958265, 22.4707301], [-80.5964917, 22.4701452], [-80.5972749, 22.4696296], [-80.5987045, 22.4691413], [-80.599072, 22.4689133], [-80.5994931, 22.4688414], [-80.5998257, 22.468953], [-80.6001583, 22.4690496], [-80.6004238, 22.4689728], [-80.6006652, 22.4685737], [-80.6008154, 22.4684201], [-80.600979, 22.4684225], [-80.6011507, 22.468539], [-80.6014136, 22.4688538], [-80.6015772, 22.4688935], [-80.6018561, 22.468891], [-80.6020171, 22.469005], [-80.6020653, 22.4692033], [-80.6019741, 22.4696594], [-80.6019366, 22.4699618], [-80.6020278, 22.4701551], [-80.6024301, 22.4704228], [-80.6025991, 22.4704624], [-80.6027895, 22.4704723], [-80.6029129, 22.4703881], [-80.603334, 22.4697684], [-80.6034011, 22.4695032], [-80.6033099, 22.4692058], [-80.6032401, 22.4689455], [-80.6033608, 22.4687274], [-80.6038919, 22.4683779], [-80.6043291, 22.4680185], [-80.60482, 22.4677137], [-80.6051794, 22.467617], [-80.6061423, 22.4675055], [-80.6067646, 22.4675154], [-80.6074163, 22.4675055], [-80.6081218, 22.4672997], [-80.6088567, 22.4668238], [-80.6092751, 22.4667049], [-80.609774, 22.4668387], [-80.6101549, 22.4670221], [-80.6107557, 22.4673196], [-80.6114209, 22.4673344], [-80.6121558, 22.4670717], [-80.6125099, 22.4667297], [-80.6130356, 22.4660257], [-80.6133896, 22.4659167], [-80.6143713, 22.4664223], [-80.6151384, 22.4665611], [-80.6157875, 22.4663579], [-80.6162113, 22.4658671], [-80.6162113, 22.4656019], [-80.616155, 22.4653887], [-80.6159109, 22.4651879], [-80.6150258, 22.4650739], [-80.6149051, 22.4649847], [-80.6147844, 22.464831], [-80.6147683, 22.464603], [-80.61483, 22.4643848], [-80.6149077, 22.4641692], [-80.6152135, 22.4637206], [-80.6152993, 22.4633488], [-80.6154093, 22.4625556], [-80.6155542, 22.4623151], [-80.6159055, 22.4620326], [-80.6166726, 22.4616459], [-80.6173807, 22.461569], [-80.6184214, 22.4617872], [-80.6185797, 22.4617698], [-80.6186762, 22.461631], [-80.6186682, 22.4611377], [-80.6187058, 22.4608874], [-80.6188586, 22.4606098], [-80.6194568, 22.460404], [-80.6194836, 22.4601636], [-80.6193227, 22.4598885], [-80.619269, 22.4597348], [-80.6193334, 22.4596951], [-80.6194809, 22.4597372], [-80.6198081, 22.4598934], [-80.6202883, 22.4601016], [-80.6210527, 22.4605668], [-80.6213611, 22.4605181], [-80.6216347, 22.4604288], [-80.6221551, 22.4598885], [-80.6222355, 22.4596802], [-80.6218815, 22.4590853], [-80.621978, 22.4589069], [-80.6221873, 22.4587829], [-80.622595, 22.4589416], [-80.6227881, 22.4587036], [-80.6226647, 22.45854], [-80.6224448, 22.4584161], [-80.6224734, 22.4582459], [-80.6227988, 22.4580591], [-80.6236125, 22.4582711], [-80.6242633, 22.4585598], [-80.6248131, 22.4590024], [-80.6252223, 22.4589898], [-80.6261838, 22.4586218], [-80.6262602, 22.4585065], [-80.6262374, 22.4583876], [-80.6257339, 22.4580694], [-80.6254247, 22.4577691], [-80.6253587, 22.4575399], [-80.6254408, 22.457375], [-80.6255883, 22.4572808], [-80.6258136, 22.4572733], [-80.6261247, 22.457375], [-80.6264171, 22.4573824], [-80.6266907, 22.4573328], [-80.6269003, 22.4571617], [-80.6268594, 22.4569284], [-80.6266344, 22.4564281], [-80.6267148, 22.4562818], [-80.6268355, 22.4562496], [-80.6273934, 22.4564826], [-80.6276161, 22.4565148], [-80.6278279, 22.4564677], [-80.6280023, 22.456138], [-80.6281337, 22.4560017], [-80.6283, 22.4560116], [-80.6286112, 22.4562645], [-80.6288499, 22.4563016], [-80.6294695, 22.4562347], [-80.6296974, 22.456319], [-80.6298369, 22.4564405], [-80.6299335, 22.4567404], [-80.6300569, 22.456899], [-80.6302661, 22.4569536], [-80.6304821, 22.4569413], [-80.6306577, 22.4569412], [-80.6308079, 22.4569746], [-80.6309755, 22.45708], [-80.6311002, 22.4570626], [-80.6311914, 22.4569784], [-80.6312491, 22.4568321], [-80.6313443, 22.4567429], [-80.6316608, 22.456495], [-80.63187, 22.4561975], [-80.6319156, 22.4559967], [-80.6317978, 22.4556866], [-80.6318183, 22.4554786], [-80.6319532, 22.455382], [-80.6321661, 22.4554218], [-80.6326613, 22.4556224], [-80.6329885, 22.4555977], [-80.6333238, 22.4555208], [-80.6334901, 22.4555704], [-80.6335545, 22.4557439], [-80.6336135, 22.4566512], [-80.6337418, 22.456733], [-80.6339293, 22.4566658], [-80.6343645, 22.4561356], [-80.6345844, 22.4559125], [-80.6348264, 22.4557565], [-80.635078, 22.4559026], [-80.6352496, 22.4565619], [-80.6353473, 22.4567193], [-80.6356573, 22.4568495], [-80.6362125, 22.4569337], [-80.636462, 22.4570775], [-80.6364856, 22.4575217], [-80.6364512, 22.457898], [-80.6365424, 22.4580566], [-80.6367543, 22.458136], [-80.637854, 22.4580752], [-80.6380056, 22.4580281], [-80.6381316, 22.457898], [-80.6382483, 22.457691], [-80.6383811, 22.4575807], [-80.638542, 22.4575212], [-80.6387539, 22.4575274], [-80.6395921, 22.4581013], [-80.6397772, 22.458074], [-80.6398872, 22.4579575], [-80.6398872, 22.4578162], [-80.6396806, 22.4576055], [-80.6395733, 22.4573973], [-80.6396014, 22.4570759], [-80.6397557, 22.4568352], [-80.640431, 22.4564875], [-80.6406945, 22.4564876], [-80.6409133, 22.4565856], [-80.6409681, 22.457256], [-80.6410325, 22.4577468], [-80.641306, 22.45796], [-80.6415099, 22.4579996], [-80.6417352, 22.4580393], [-80.6419337, 22.4579773], [-80.6421644, 22.4577344], [-80.6422287, 22.4574122], [-80.6423092, 22.4572337], [-80.6424379, 22.4571965], [-80.6425613, 22.4573056], [-80.6426847, 22.4576228], [-80.6426659, 22.4578683], [-80.6426927, 22.4581384], [-80.6428161, 22.45825], [-80.6429851, 22.4582748], [-80.6434518, 22.4578162], [-80.6437576, 22.4577567], [-80.6442592, 22.4580269], [-80.6445032, 22.4582748], [-80.6447232, 22.4582773], [-80.6449002, 22.4581558], [-80.6448814, 22.4577146], [-80.6450424, 22.457551], [-80.645265, 22.4575708], [-80.6455117, 22.4578335], [-80.6455654, 22.4580269], [-80.6453347, 22.4584805], [-80.6452167, 22.4588474], [-80.6452087, 22.4589862], [-80.6453696, 22.4591374], [-80.6455332, 22.4591324], [-80.645788, 22.4587234], [-80.6459248, 22.4586962], [-80.6460562, 22.4588003], [-80.6462252, 22.4594373], [-80.6462064, 22.4596554], [-80.6461823, 22.4598661], [-80.6459141, 22.4602156], [-80.6458846, 22.4603693], [-80.6460294, 22.4604437], [-80.64648, 22.4602181], [-80.6466463, 22.4603222], [-80.6467643, 22.4604734], [-80.6467187, 22.4607337], [-80.6461903, 22.4610386], [-80.6459865, 22.4612101], [-80.6458792, 22.4614154], [-80.6459785, 22.4615765], [-80.6460884, 22.4616905], [-80.6463593, 22.4616979], [-80.6464881, 22.4616484], [-80.6470187, 22.4608802], [-80.6471774, 22.4607511], [-80.6473491, 22.4607684], [-80.6475315, 22.4609147], [-80.6477273, 22.461227], [-80.6482934, 22.4617321], [-80.6486338, 22.4619086], [-80.6488645, 22.4619855], [-80.6494868, 22.4618417], [-80.6496477, 22.4618442], [-80.6497228, 22.4618888], [-80.6498033, 22.4621515], [-80.6499186, 22.4622383], [-80.6500532, 22.4622427], [-80.65016, 22.4622011], [-80.6503075, 22.4618417], [-80.6504068, 22.4617549], [-80.6507217, 22.4617006], [-80.6518409, 22.4621458], [-80.6523836, 22.4633438], [-80.6525582, 22.4635155], [-80.6528181, 22.4635421], [-80.6530756, 22.4634876], [-80.6540787, 22.4611675], [-80.6542611, 22.4610882], [-80.6548995, 22.4612567], [-80.6553501, 22.4613013], [-80.6556773, 22.4610138], [-80.6560957, 22.4609047], [-80.6563908, 22.4609147], [-80.6565303, 22.4611923], [-80.6564552, 22.4616236], [-80.6560046, 22.4623077], [-80.6559187, 22.4625952], [-80.6559777, 22.4629621], [-80.6561601, 22.4631207], [-80.6563532, 22.4631058], [-80.6565625, 22.4625308], [-80.6569326, 22.4623027], [-80.6573296, 22.462273], [-80.6574487, 22.4623687], [-80.6574047, 22.4625903], [-80.6570935, 22.4631529], [-80.6571606, 22.4632446], [-80.6572625, 22.463314], [-80.65741, 22.4633215], [-80.6577761, 22.462646], [-80.6580626, 22.4620283], [-80.6582737, 22.461693], [-80.6587029, 22.4615096], [-80.6590784, 22.4615988], [-80.6596148, 22.4616979], [-80.6600225, 22.4617128], [-80.660103, 22.4617971], [-80.6601512, 22.4620152], [-80.6599957, 22.4631827], [-80.6601754, 22.4633958], [-80.6603846, 22.463438], [-80.6608835, 22.4633116], [-80.6611383, 22.4631083], [-80.6613261, 22.4629299], [-80.6614789, 22.4628877], [-80.6615914, 22.4630305], [-80.6617606, 22.4631281], [-80.6619859, 22.4632223], [-80.6623989, 22.4631257], [-80.6629247, 22.4629323], [-80.6633753, 22.4627043], [-80.6637856, 22.462278], [-80.6641316, 22.4615988], [-80.6643006, 22.4614848], [-80.6644669, 22.4614253], [-80.6646815, 22.4614476], [-80.6650141, 22.4619656], [-80.6652206, 22.4620623], [-80.6655103, 22.4621144], [-80.6661031, 22.4620648], [-80.6663525, 22.4619508], [-80.6666771, 22.4615616], [-80.6668192, 22.461512], [-80.6670526, 22.4615368], [-80.668074, 22.4619527], [-80.6690133, 22.4622581], [-80.6691501, 22.4623746], [-80.6691742, 22.4625556], [-80.6692359, 22.4630736], [-80.6693593, 22.4633463], [-80.6696731, 22.4633934], [-80.6698474, 22.4633364], [-80.6700486, 22.4631752], [-80.6702578, 22.4627588], [-80.6711806, 22.4621776], [-80.6715319, 22.4621714], [-80.671784, 22.4622804], [-80.6720978, 22.4624911], [-80.6722051, 22.4633587], [-80.6724304, 22.4635173], [-80.6726289, 22.463557], [-80.6729776, 22.463438], [-80.6735569, 22.4624763], [-80.6739378, 22.462511], [-80.6741202, 22.4626398], [-80.6742168, 22.4636065], [-80.6743294, 22.4638693], [-80.6744796, 22.4640081], [-80.6748015, 22.4640279], [-80.6756598, 22.4640477], [-80.6763732, 22.4640924], [-80.6766897, 22.4639585], [-80.6772959, 22.4632496], [-80.677768, 22.4629373], [-80.6789535, 22.4628034], [-80.6794953, 22.4628927], [-80.6800586, 22.463086], [-80.6810774, 22.4633896], [-80.6815009, 22.4632673], [-80.6817699, 22.4630811], [-80.6821829, 22.4624168], [-80.6825101, 22.4623573], [-80.6827784, 22.4624366], [-80.6830573, 22.4628728], [-80.6833094, 22.4629175], [-80.6834811, 22.4629026], [-80.6837332, 22.4623077], [-80.6839371, 22.4621887], [-80.684849, 22.462268], [-80.6850314, 22.4624168], [-80.6850475, 22.4626845], [-80.6847632, 22.4637057], [-80.6848544, 22.463899], [-80.6852835, 22.4639189], [-80.6861365, 22.4631306], [-80.6865174, 22.4625903], [-80.6867695, 22.4620648], [-80.6867856, 22.4617921], [-80.6865335, 22.4612468], [-80.6865495, 22.4609444], [-80.6866515, 22.4606073], [-80.6869197, 22.4603148], [-80.687955, 22.4601562], [-80.6884056, 22.4602107], [-80.6889018, 22.4603669], [-80.6891781, 22.4603842], [-80.6898862, 22.4602156], [-80.6900579, 22.4602764], [-80.6901035, 22.4603743], [-80.6901048, 22.4605292], [-80.6899184, 22.4607907], [-80.6897186, 22.4610661], [-80.6896663, 22.4612418], [-80.6896663, 22.4613807], [-80.6898031, 22.4615219], [-80.6900096, 22.4615814], [-80.6903368, 22.4613435], [-80.6905407, 22.4610584], [-80.6906721, 22.4608824], [-80.6909081, 22.4608775], [-80.6910503, 22.4609221], [-80.6915036, 22.4612815], [-80.6918523, 22.4613583], [-80.6923324, 22.4613187], [-80.6929936, 22.4611303], [-80.6934308, 22.460989], [-80.693479, 22.4609605], [-80.6935219, 22.4608936], [-80.6935555, 22.4607858], [-80.6936319, 22.4607052], [-80.6939203, 22.460523], [-80.6942046, 22.4604016], [-80.6944929, 22.4604276], [-80.694745, 22.4605205], [-80.6955779, 22.4608304], [-80.6956771, 22.4609035], [-80.6957173, 22.4610287], [-80.6955323, 22.4617996], [-80.6956208, 22.4621391], [-80.6958832, 22.4627644], [-80.6963182, 22.4631951], [-80.6967473, 22.4634206], [-80.6969485, 22.4634082], [-80.6970558, 22.4633165], [-80.6970826, 22.4630959], [-80.6971416, 22.4627762], [-80.6973347, 22.4626299], [-80.697552, 22.4626572], [-80.6976861, 22.4629125], [-80.6980053, 22.463547], [-80.698024, 22.4638098], [-80.6979382, 22.4640353], [-80.6976351, 22.4643501], [-80.6974635, 22.4647269], [-80.6975305, 22.4649525], [-80.6976405, 22.4650367], [-80.6977612, 22.4650194], [-80.6981742, 22.4647889], [-80.6984666, 22.4646798], [-80.6989735, 22.4647641], [-80.6992833, 22.4649326], [-80.6994738, 22.4649599], [-80.6996749, 22.4648954], [-80.6997098, 22.4648347], [-80.6998265, 22.4644344], [-80.6999244, 22.4643551], [-80.7000437, 22.4643539], [-80.7001497, 22.4644257], [-80.7002878, 22.464774], [-80.7004219, 22.4649723], [-80.7005721, 22.4650157], [-80.7007076, 22.4649363], [-80.7011944, 22.4644295], [-80.7023236, 22.4636264], [-80.7023558, 22.4634529], [-80.7022673, 22.4633066], [-80.7017502, 22.4629547], [-80.7015726, 22.4628233], [-80.7016048, 22.4626894], [-80.7017174, 22.4625729], [-80.7024711, 22.4623672], [-80.7034957, 22.4622259], [-80.7041878, 22.4622061], [-80.7042843, 22.4620673], [-80.7042521, 22.4619532], [-80.7039222, 22.4617153], [-80.7031792, 22.46146], [-80.7025516, 22.4613336], [-80.7025006, 22.4612592], [-80.7025462, 22.461103], [-80.7027608, 22.4609667], [-80.7032141, 22.4607213], [-80.7033885, 22.4607312], [-80.7037103, 22.4608601], [-80.7043111, 22.4612741], [-80.7052231, 22.4619334], [-80.7053901, 22.4620727], [-80.7056521, 22.4620727], [-80.7057568, 22.4619855], [-80.7060277, 22.4616855], [-80.7062021, 22.4616236], [-80.706304, 22.4616806], [-80.7065454, 22.4619954], [-80.7067519, 22.4621466], [-80.7069531, 22.4622234], [-80.7071891, 22.4621714], [-80.7074681, 22.4620003], [-80.7080153, 22.4615269], [-80.7084498, 22.4614278], [-80.709461, 22.46146], [-80.7099411, 22.4616037], [-80.7101932, 22.4617103], [-80.7105285, 22.4618838], [-80.7110167, 22.4619954], [-80.7111669, 22.462097], [-80.7112151, 22.4622581], [-80.7110596, 22.462739], [-80.7109764, 22.4631381], [-80.7110301, 22.4633091], [-80.7112393, 22.4633983], [-80.711588, 22.4633686], [-80.711934, 22.4632248], [-80.7124651, 22.4628307], [-80.7131973, 22.4626622], [-80.7140315, 22.4628034], [-80.7145572, 22.4630811], [-80.7148737, 22.4635223], [-80.7151473, 22.4635917], [-80.7154664, 22.463438], [-80.7157937, 22.4632719], [-80.7159975, 22.4632942], [-80.716137, 22.4634454], [-80.7161987, 22.4640626], [-80.7162121, 22.4646203], [-80.7163274, 22.4648236], [-80.7164669, 22.4648459], [-80.716684, 22.4647788], [-80.7169685, 22.4644741], [-80.7171965, 22.4643402], [-80.717513, 22.4642857], [-80.7178161, 22.4644617], [-80.7178375, 22.4646501], [-80.717741, 22.4648831], [-80.71758, 22.4650466], [-80.7174486, 22.4652152], [-80.7172689, 22.4654829], [-80.7172548, 22.465704], [-80.7173601, 22.4659563], [-80.717631, 22.4660827], [-80.7180494, 22.4661199], [-80.7184571, 22.4660778], [-80.7190955, 22.4659588], [-80.7194415, 22.4659662], [-80.7196641, 22.4660455], [-80.7197633, 22.4662686], [-80.719927, 22.4665561], [-80.7203668, 22.4668709], [-80.7205036, 22.4669973], [-80.7206243, 22.4671535], [-80.720745, 22.4678302], [-80.7208241, 22.4679561], [-80.7210025, 22.4679739], [-80.7212976, 22.467902], [-80.7216141, 22.4676368], [-80.7219949, 22.4674261], [-80.7221907, 22.467441], [-80.7223168, 22.4675327], [-80.7223892, 22.4677285], [-80.7224053, 22.467902], [-80.7224321, 22.4683011], [-80.7225689, 22.4685936], [-80.7226574, 22.468663], [-80.7228908, 22.4686332], [-80.7232341, 22.4684473], [-80.7235748, 22.468425], [-80.724197, 22.4685019], [-80.7246879, 22.4687225], [-80.7249457, 22.4688875], [-80.725227, 22.4689059], [-80.7254764, 22.4688563], [-80.7262087, 22.4684002], [-80.7263964, 22.4683408], [-80.7265627, 22.4684027], [-80.7268795, 22.4691071], [-80.7270509, 22.4692207], [-80.7272186, 22.4692033], [-80.7274098, 22.4689891], [-80.7278733, 22.4684805], [-80.7282731, 22.4683948], [-80.7286845, 22.4684644], [-80.7290032, 22.4686893], [-80.7291017, 22.4690213], [-80.7290148, 22.4694389], [-80.7288265, 22.4700485], [-80.7287943, 22.4703162], [-80.7289043, 22.4704451], [-80.7291859, 22.4704748], [-80.7295536, 22.4704883], [-80.7299799, 22.4704376], [-80.7301703, 22.4702691], [-80.7301998, 22.4700807], [-80.7299982, 22.4695612], [-80.7300213, 22.46924], [-80.7301488, 22.4690365], [-80.7304269, 22.4689669], [-80.7306645, 22.4689241], [-80.7309947, 22.4689348], [-80.7311512, 22.4690579], [-80.7311975, 22.4691757], [-80.7311512, 22.4696362], [-80.7310179, 22.4701502], [-80.7309136, 22.4706588], [-80.7309426, 22.4709372], [-80.7311512, 22.4711728], [-80.7314872, 22.4711942], [-80.7316842, 22.4710818], [-80.7318059, 22.470873], [-80.7317072, 22.4701848], [-80.731734, 22.4700064], [-80.7318467, 22.4698205], [-80.7320935, 22.4697635], [-80.7327345, 22.4698106], [-80.7333935, 22.469845], [-80.733718, 22.4699146], [-80.7340595, 22.4701501], [-80.7341936, 22.4704153], [-80.7343277, 22.4706483], [-80.7344779, 22.4706706], [-80.7346094, 22.4706508], [-80.7347649, 22.4704674], [-80.7354156, 22.4699574], [-80.7358849, 22.4696308], [-80.7361865, 22.4694289], [-80.736562, 22.4692107], [-80.7366988, 22.4692207], [-80.7367525, 22.4693942], [-80.7366157, 22.4697882], [-80.7365727, 22.4699147], [-80.7366382, 22.4701395], [-80.7368463, 22.4702369], [-80.7371226, 22.4702542], [-80.7372835, 22.4700807], [-80.7373211, 22.4696197], [-80.7373935, 22.4689245], [-80.7374512, 22.4687423], [-80.7376094, 22.4686741], [-80.7377912, 22.4687527], [-80.7379407, 22.4688687], [-80.738005, 22.469186], [-80.7379916, 22.4695776], [-80.7380587, 22.4696965], [-80.7383966, 22.469813], [-80.7385844, 22.4698254], [-80.7387641, 22.4697585], [-80.7390806, 22.469414], [-80.7393193, 22.4691364], [-80.739778, 22.4685688], [-80.7400355, 22.4684622], [-80.7403573, 22.4685068], [-80.740521, 22.4686382], [-80.7406738, 22.4688092], [-80.7407275, 22.46901], [-80.7406604, 22.4694685], [-80.7407704, 22.4698006], [-80.7410279, 22.4699717], [-80.7413229, 22.4698998], [-80.7415965, 22.4697734], [-80.7423905, 22.4694165], [-80.7429363, 22.4691382], [-80.743694, 22.4689604], [-80.7439837, 22.4688414], [-80.744211, 22.4687367], [-80.7445413, 22.4687795], [-80.7447535, 22.4689356], [-80.7449627, 22.469414], [-80.7451424, 22.4694933], [-80.7452953, 22.4694983], [-80.7456479, 22.4690633], [-80.7459766, 22.4688761], [-80.7464862, 22.4686134], [-80.746572, 22.46843], [-80.7465452, 22.4682887], [-80.7463548, 22.4679491], [-80.7463682, 22.4678649], [-80.7465076, 22.4678326], [-80.7467604, 22.4679603], [-80.7471004, 22.4682317], [-80.7474491, 22.4685316], [-80.748007, 22.4686977], [-80.7481787, 22.4687051], [-80.7483235, 22.4685985], [-80.7484349, 22.4682173], [-80.748589, 22.4677781], [-80.7486829, 22.4673344], [-80.7487527, 22.467156], [-80.7488599, 22.4670866], [-80.7490692, 22.4671461], [-80.7494661, 22.4673766], [-80.7496861, 22.4674286], [-80.7499194, 22.4673642], [-80.7501233, 22.467208], [-80.750252, 22.4670667], [-80.7506114, 22.4667544], [-80.7508984, 22.4667792], [-80.7511076, 22.4668883], [-80.7513839, 22.4670296], [-80.7515797, 22.467094], [-80.7517954, 22.4670768], [-80.751915, 22.4669701], [-80.7519794, 22.4667767], [-80.7519016, 22.4662513], [-80.751805, 22.4657977], [-80.751864, 22.4656093], [-80.7519767, 22.4654655], [-80.7521457, 22.4652573], [-80.7525255, 22.4650422], [-80.7529716, 22.4649726], [-80.7541761, 22.4649649], [-80.7549164, 22.4650095], [-80.7561062, 22.4651279], [-80.7564654, 22.4651868], [-80.7566062, 22.465178], [-80.7566974, 22.4651086], [-80.7566625, 22.4649698], [-80.7563674, 22.4647145], [-80.7562575, 22.4645658], [-80.7562163, 22.4642765], [-80.7563206, 22.4639553], [-80.7566219, 22.4637518], [-80.7568342, 22.4637329], [-80.7570756, 22.4638767], [-80.7573751, 22.4642819], [-80.7575084, 22.4642872], [-80.7577749, 22.4641534], [-80.7579285, 22.4641023], [-80.7583311, 22.4640142], [-80.7588646, 22.4638618], [-80.7592176, 22.4638214], [-80.7593856, 22.4638589], [-80.7597873, 22.4641469], [-80.7602057, 22.4644889], [-80.7605329, 22.4646104], [-80.7615522, 22.4648335], [-80.7619599, 22.4649376], [-80.7620161, 22.4650101], [-80.7620215, 22.4651706], [-80.7617786, 22.46584], [-80.7618076, 22.4662202], [-80.7619384, 22.4664793], [-80.7621691, 22.4666503], [-80.7624829, 22.4666206], [-80.7625741, 22.466571], [-80.7629094, 22.4659191], [-80.7630435, 22.4657828], [-80.7632768, 22.4657506], [-80.7638159, 22.465934], [-80.7641754, 22.4661744], [-80.7645597, 22.4666057], [-80.7646742, 22.4669701], [-80.7646742, 22.4671907], [-80.7647306, 22.4673518], [-80.7648057, 22.467441], [-80.7649666, 22.4674336], [-80.7650524, 22.4673766], [-80.7651678, 22.4672229], [-80.7653153, 22.4669602], [-80.7655216, 22.4665468], [-80.7656506, 22.4661397], [-80.7658625, 22.4658473], [-80.7660046, 22.465644], [-80.7663506, 22.465525], [-80.7667717, 22.465525], [-80.7687244, 22.4656514], [-80.769116, 22.4657605], [-80.7694003, 22.465815], [-80.7696122, 22.4657977], [-80.7701433, 22.4653639], [-80.7702693, 22.4652995], [-80.7704651, 22.4653069], [-80.7708728, 22.4654655], [-80.7714951, 22.4659811], [-80.7718411, 22.4662785], [-80.7720155, 22.4663504], [-80.7722864, 22.4663702], [-80.7726994, 22.4662711], [-80.7731715, 22.4661943], [-80.7734504, 22.4661645], [-80.7735255, 22.4662215], [-80.7735255, 22.4663653], [-80.7734022, 22.466462], [-80.7731849, 22.4665388], [-80.7731286, 22.4666008], [-80.7730991, 22.46669], [-80.7731581, 22.4668139], [-80.7732895, 22.466923], [-80.7734719, 22.4669949], [-80.7735041, 22.4670643], [-80.7734893, 22.4671225], [-80.7733257, 22.467151], [-80.7730454, 22.467208], [-80.7729864, 22.4673096], [-80.7729891, 22.4674187], [-80.7730776, 22.4675203], [-80.7732788, 22.4676418], [-80.7735765, 22.4677285], [-80.7743222, 22.4677756], [-80.7753655, 22.4679243], [-80.7756364, 22.468021], [-80.7757786, 22.4681772], [-80.7757518, 22.4684151], [-80.7756418, 22.4688414], [-80.7756901, 22.468983], [-80.7759154, 22.4690546], [-80.7762399, 22.4690125], [-80.7768676, 22.4687522], [-80.7772484, 22.4686803], [-80.7775274, 22.46872], [-80.7776347, 22.4688712], [-80.7776293, 22.4690843], [-80.7776079, 22.4694016], [-80.777691, 22.4695553], [-80.7779673, 22.4697684], [-80.7783562, 22.4699394], [-80.7785279, 22.4700658], [-80.7785493, 22.4702443], [-80.7785252, 22.4705244], [-80.7785574, 22.4707177], [-80.778603, 22.4707945], [-80.7787854, 22.4708243], [-80.7790107, 22.4708466], [-80.7790563, 22.4709135], [-80.7790536, 22.4710374], [-80.7789597, 22.4710845], [-80.7782891, 22.4711044], [-80.7778761, 22.471144], [-80.7777903, 22.4713002], [-80.7778519, 22.4714514], [-80.7782516, 22.471729], [-80.778788, 22.4721354], [-80.7789597, 22.4722197], [-80.7790911, 22.4722197], [-80.7792091, 22.4721652], [-80.7795873, 22.4716298], [-80.7798153, 22.4716149], [-80.7801023, 22.4717537], [-80.7804483, 22.4720512], [-80.780797, 22.4722643], [-80.781206, 22.4723895], [-80.7818538, 22.4723139], [-80.7820335, 22.4723387], [-80.7822266, 22.47248], [-80.7824385, 22.4725469], [-80.7825565, 22.472537], [-80.7826397, 22.4724874], [-80.782688, 22.4721776], [-80.7827926, 22.4719446], [-80.7829589, 22.4718777], [-80.7832941, 22.4719372], [-80.7835892, 22.4721578], [-80.7838478, 22.4724546], [-80.7841766, 22.4728319], [-80.7845521, 22.4733697], [-80.7847452, 22.473454], [-80.7848981, 22.4734664], [-80.7852709, 22.4731715], [-80.7854748, 22.4731145], [-80.7855177, 22.4732483], [-80.7852817, 22.4736449], [-80.7852441, 22.4739497], [-80.785346, 22.4740191], [-80.7856196, 22.4740489], [-80.7858691, 22.4739968], [-80.7860151, 22.4738391], [-80.7860515, 22.4734763], [-80.7861641, 22.4732657], [-80.786266, 22.4731789], [-80.7865369, 22.4731169], [-80.7866467, 22.4733144], [-80.7867162, 22.4734965], [-80.7867703, 22.4737861], [-80.7868025, 22.4741356], [-80.7869366, 22.4742496], [-80.7870466, 22.4742992], [-80.7872102, 22.4742868], [-80.7881597, 22.4739646], [-80.7887712, 22.4737861], [-80.7890153, 22.4737465], [-80.7894042, 22.4738729], [-80.7895598, 22.4738803], [-80.7896993, 22.4737366], [-80.7898092, 22.4733673], [-80.7901499, 22.4726287], [-80.7904449, 22.4724651], [-80.7906562, 22.4724739], [-80.79074, 22.4727105], [-80.7907534, 22.4730723], [-80.7908151, 22.4732359], [-80.791094, 22.4734144], [-80.7913247, 22.4734416], [-80.7917726, 22.4732805], [-80.792006, 22.4730475], [-80.7924512, 22.472475], [-80.7926846, 22.4724329], [-80.7930386, 22.4725494], [-80.7934302, 22.4727551], [-80.7937226, 22.4728344], [-80.7939356, 22.4727898], [-80.7940214, 22.4727442], [-80.7942079, 22.4726452], [-80.7951408, 22.4721098], [-80.795584, 22.4721429], [-80.7958174, 22.4722668], [-80.7959166, 22.4724552], [-80.7959172, 22.4727148], [-80.7958281, 22.4732458], [-80.7957235, 22.473625], [-80.7957691, 22.4737043], [-80.7958683, 22.4737514], [-80.7959971, 22.473749], [-80.7961473, 22.4735309], [-80.7963511, 22.4734639], [-80.7965835, 22.4734965], [-80.7967578, 22.473646], [-80.79685, 22.4738555], [-80.7966489, 22.4749758], [-80.7967427, 22.4751196], [-80.7969359, 22.4751543], [-80.7977647, 22.4749733], [-80.7981616, 22.4748915], [-80.7983708, 22.4749882], [-80.7987061, 22.4755211], [-80.7995054, 22.4762572], [-80.7997575, 22.4764815], [-80.7998434, 22.4764654], [-80.7999319, 22.4763985], [-80.7999252, 22.4762535], [-80.7999426, 22.4759573], [-80.8000673, 22.4757305], [-80.8005166, 22.4755236], [-80.8009592, 22.4755632], [-80.8011094, 22.4756153], [-80.8011496, 22.4756772], [-80.8011496, 22.4757826], [-80.8008465, 22.4761357], [-80.800631, 22.4765118], [-80.8005568, 22.4767963], [-80.8005756, 22.4770404], [-80.8010611, 22.4777913], [-80.8011577, 22.4781606], [-80.8010772, 22.478748], [-80.8011174, 22.4789091], [-80.8014768, 22.4791173], [-80.801847, 22.4792264], [-80.8019677, 22.4792313], [-80.8020696, 22.4791917], [-80.8023566, 22.4788695], [-80.8026141, 22.4787976], [-80.802775, 22.4788422], [-80.8029065, 22.4789636], [-80.8029252, 22.479152], [-80.8028314, 22.4793304], [-80.802649, 22.4794023], [-80.80237, 22.4794445], [-80.8021501, 22.4795981], [-80.8018631, 22.4802375], [-80.801627, 22.4811545], [-80.8016512, 22.4812537], [-80.8017504, 22.4813256], [-80.801847, 22.4813181], [-80.8021179, 22.4811273], [-80.8023566, 22.4811174], [-80.8025739, 22.4811892], [-80.8027214, 22.4814594], [-80.8027428, 22.48168], [-80.8026382, 22.4819352], [-80.8024344, 22.4821558], [-80.8023995, 22.482307], [-80.8025631, 22.4824656], [-80.8027884, 22.4825251], [-80.8030701, 22.4825077], [-80.8034644, 22.4824408], [-80.8037084, 22.4823119], [-80.8039364, 22.4819303], [-80.8040839, 22.4818287], [-80.8042692, 22.4818449], [-80.8043924, 22.481903], [-80.804489, 22.4820245], [-80.8047491, 22.4826193], [-80.8047612, 22.4827221], [-80.8047062, 22.48282], [-80.8041832, 22.4830951], [-80.8041081, 22.4832463], [-80.8041671, 22.4833776], [-80.8046258, 22.4838832], [-80.8048752, 22.4840369], [-80.8050147, 22.4840939], [-80.8052453, 22.4840864], [-80.8053795, 22.4840294], [-80.8056235, 22.4836602], [-80.8057308, 22.4835709], [-80.8059105, 22.4835908], [-80.8062807, 22.4840294], [-80.8063155, 22.484193], [-80.8062968, 22.4842773], [-80.8061627, 22.4846416], [-80.8062136, 22.4848473], [-80.8063585, 22.4848944], [-80.8064979, 22.4849068], [-80.8068815, 22.4849117], [-80.8074421, 22.4848225], [-80.8075601, 22.4847457], [-80.8075789, 22.4846589], [-80.8075064, 22.4843714], [-80.8075815, 22.4843095], [-80.8077371, 22.4843045], [-80.8083084, 22.4844359], [-80.8088824, 22.4848151], [-80.8091372, 22.4851719], [-80.8095382, 22.4859253], [-80.809738, 22.4859675], [-80.8098842, 22.4859439], [-80.8106205, 22.485276], [-80.8108163, 22.4851992], [-80.8109826, 22.4852165], [-80.8113259, 22.4854619], [-80.8118838, 22.4857023], [-80.8121628, 22.4857593], [-80.8125383, 22.4857172], [-80.8127904, 22.4856701], [-80.8129352, 22.4854991], [-80.8130372, 22.4850406], [-80.813072, 22.4848572], [-80.8131579, 22.4847804], [-80.813292, 22.4847853], [-80.8135897, 22.4849439], [-80.813925, 22.4851298], [-80.8141449, 22.485224], [-80.8145714, 22.4853107], [-80.8148342, 22.485219], [-80.8151239, 22.4851769], [-80.815545, 22.4852686], [-80.8160144, 22.485333], [-80.8162424, 22.4854761], [-80.8166286, 22.4859774], [-80.8167547, 22.4861112], [-80.8168942, 22.4861236], [-80.8170337, 22.4860839], [-80.8171061, 22.4856478], [-80.8172321, 22.485395], [-80.8173904, 22.4852785], [-80.8177149, 22.4852215], [-80.818069, 22.4851868], [-80.8182621, 22.4850728], [-80.8183989, 22.4850108], [-80.8186443, 22.4850542], [-80.8187637, 22.4851372], [-80.8189917, 22.4854966], [-80.8192304, 22.4858609], [-80.8194289, 22.4859799], [-80.8197011, 22.4860158], [-80.8198956, 22.4859551], [-80.8201517, 22.4859625], [-80.8202979, 22.4860121], [-80.8203515, 22.4862128], [-80.8203194, 22.4864681], [-80.8203462, 22.4865449], [-80.8204508, 22.486597], [-80.8205983, 22.486535], [-80.8208142, 22.4864284], [-80.821069, 22.4863962], [-80.8219206, 22.4864235], [-80.8222827, 22.4863764], [-80.8225161, 22.4863665], [-80.8227924, 22.4864036], [-80.8229318, 22.48653], [-80.8231062, 22.4867556], [-80.8232456, 22.4867803], [-80.8235541, 22.4866564], [-80.8239629, 22.4866422], [-80.8245116, 22.4869067], [-80.824737, 22.4869241], [-80.8250642, 22.4867568], [-80.8251742, 22.4867556], [-80.8252533, 22.4868373], [-80.8253002, 22.4869823], [-80.8252144, 22.487381], [-80.8252452, 22.4875387], [-80.8253458, 22.4877531], [-80.8255175, 22.4878832], [-80.8255684, 22.48796], [-80.825551, 22.4880418], [-80.8254384, 22.4882785], [-80.8253056, 22.4885535], [-80.8252881, 22.4887679], [-80.8253303, 22.4888639], [-80.8254209, 22.4889302], [-80.8256342, 22.4889649], [-80.8258528, 22.4888819], [-80.8267379, 22.4885994], [-80.8273347, 22.4881744], [-80.8273856, 22.488136], [-80.8275586, 22.4881149], [-80.8276847, 22.4881682], [-80.8279261, 22.4882462], [-80.8280414, 22.4882735], [-80.8282882, 22.4882475], [-80.8285028, 22.4881892], [-80.8286905, 22.4881781], [-80.8288327, 22.4882388], [-80.8290379, 22.488416], [-80.8292136, 22.4884606], [-80.829455, 22.4884569], [-80.8295529, 22.4884036], [-80.8295837, 22.4882772], [-80.8295274, 22.4880481], [-80.8294322, 22.4877853], [-80.8294308, 22.4876341], [-80.8294684, 22.4874569], [-80.8295944, 22.487364], [-80.8301751, 22.487276], [-80.830662, 22.4872165], [-80.8307411, 22.487214], [-80.8308658, 22.487224], [-80.8309758, 22.4873367], [-80.831071, 22.4874371], [-80.8311448, 22.487535], [-80.8312748, 22.4876081], [-80.8313902, 22.4876614], [-80.8314921, 22.4876564], [-80.8315216, 22.4875957], [-80.8315484, 22.4875003], [-80.8315042, 22.4872562], [-80.8315243, 22.4870406], [-80.8315645, 22.4869352], [-80.8317778, 22.4867258], [-80.8318971, 22.4865722], [-80.8319655, 22.4864792], [-80.832046, 22.4864247], [-80.8321291, 22.4863974], [-80.8323477, 22.4863665], [-80.8325127, 22.4862983], [-80.8326495, 22.4862847], [-80.8327541, 22.4863516], [-80.8328077, 22.4864086], [-80.8328922, 22.4864854], [-80.8328909, 22.4865499], [-80.8328412, 22.4865957], [-80.8327648, 22.4866019], [-80.8326106, 22.4866577], [-80.8324952, 22.486758], [-80.8324255, 22.4869005], [-80.8323155, 22.4870864], [-80.8320916, 22.4873008], [-80.8320326, 22.4873764], [-80.8320594, 22.4874941], [-80.832172, 22.4876019], [-80.8322498, 22.4876589], [-80.8324134, 22.4877146], [-80.8325918, 22.4878423], [-80.8327635, 22.4880356], [-80.8328614, 22.4880777], [-80.8329432, 22.4880591], [-80.8330223, 22.4880083], [-80.8332208, 22.487898], [-80.8333294, 22.4879042], [-80.8334099, 22.4879488], [-80.833426, 22.488017], [-80.8334085, 22.4881198], [-80.8331873, 22.4883169], [-80.8331658, 22.488421], [-80.8331725, 22.4884841], [-80.8332597, 22.4885808], [-80.8334783, 22.4886428], [-80.8337894, 22.4886477], [-80.8339061, 22.4886867], [-80.8339423, 22.4887419], [-80.8340147, 22.4890665], [-80.8340737, 22.4891694], [-80.8341728, 22.4892536], [-80.8343527, 22.4892177], [-80.8344358, 22.4891904], [-80.8345337, 22.4891173], [-80.8345941, 22.489012], [-80.8346584, 22.4889315], [-80.834759, 22.4888311], [-80.835101, 22.488639], [-80.8353826, 22.488499], [-80.8354913, 22.4884495], [-80.8356214, 22.4884742], [-80.8356777, 22.4885449], [-80.8356549, 22.4887766], [-80.8356147, 22.4889339], [-80.8356093, 22.4890083], [-80.8356924, 22.4890702], [-80.8357903, 22.489074], [-80.8359218, 22.4890194], [-80.8363952, 22.4888633], [-80.8367747, 22.4886886], [-80.8369249, 22.4884408], [-80.837236, 22.488012], [-80.8375472, 22.4877419], [-80.8379012, 22.4875511], [-80.8382365, 22.4874247], [-80.8387971, 22.4873157], [-80.8390519, 22.487167], [-80.8392262, 22.4869414], [-80.8394703, 22.486473], [-80.8395803, 22.4861781], [-80.8397573, 22.4860071], [-80.8403447, 22.4857742], [-80.8409697, 22.4855858], [-80.8412191, 22.4855883], [-80.8414739, 22.4856527], [-80.8417287, 22.4857469], [-80.8418897, 22.4857196], [-80.8419916, 22.4855982], [-80.8420265, 22.4852587], [-80.842056, 22.4850455], [-80.8421257, 22.4849043], [-80.8423054, 22.4847928], [-80.8425951, 22.4848225], [-80.8429867, 22.484877], [-80.8432496, 22.4847704], [-80.8435178, 22.4845846], [-80.8437029, 22.4843194], [-80.8439389, 22.4839353], [-80.8441347, 22.4836106], [-80.8442929, 22.4833058], [-80.8446926, 22.4827927], [-80.8451298, 22.482473], [-80.8457762, 22.4820815], [-80.8461088, 22.4819774], [-80.8466157, 22.4819551], [-80.8473453, 22.4817667], [-80.8484557, 22.4813107], [-80.8485603, 22.4811521], [-80.8485201, 22.4809662], [-80.8483511, 22.480696], [-80.8482733, 22.480473], [-80.8482626, 22.4802499], [-80.848327, 22.480131], [-80.8485147, 22.4800938], [-80.8486837, 22.4801558], [-80.8487991, 22.4801136], [-80.8488876, 22.4800194], [-80.8488822, 22.4798484], [-80.8488339, 22.4796229], [-80.8486435, 22.4792511], [-80.8485469, 22.4790182], [-80.848555, 22.4787555], [-80.848681, 22.4786142], [-80.8488447, 22.4785646], [-80.849357, 22.4785473], [-80.8500141, 22.4784754], [-80.8501053, 22.4784593], [-80.8502448, 22.4783614], [-80.8502716, 22.4782201], [-80.8502112, 22.4779388], [-80.8502153, 22.4778372], [-80.8502839, 22.4777399], [-80.8508241, 22.4774592], [-80.8521035, 22.4770478], [-80.8523637, 22.4768], [-80.8524174, 22.4764976], [-80.8523127, 22.4762894], [-80.8519453, 22.4761853], [-80.8518702, 22.476054], [-80.8519453, 22.4758805], [-80.8521545, 22.475707], [-80.8523288, 22.4755632], [-80.8522913, 22.4754443], [-80.8521464, 22.4753649], [-80.8519802, 22.4752187], [-80.851956, 22.4749808], [-80.8522832, 22.4741505], [-80.8527714, 22.4732904], [-80.8528841, 22.4732657], [-80.8530048, 22.473345], [-80.8534822, 22.4742075], [-80.8536378, 22.4745991], [-80.8536941, 22.4749436], [-80.8538148, 22.475013], [-80.8540133, 22.4750056], [-80.8542895, 22.474552], [-80.8544183, 22.4744454], [-80.8547133, 22.4743661], [-80.8553705, 22.4744107], [-80.855585, 22.4743488], [-80.8557111, 22.474153], [-80.8558238, 22.4735656], [-80.8560169, 22.4732929], [-80.8563709, 22.4731392], [-80.8568913, 22.4730748], [-80.8573902, 22.4731194], [-80.8574867, 22.4732235], [-80.8575699, 22.4737068], [-80.8574867, 22.4740687], [-80.8576798, 22.4743041], [-80.8578944, 22.4743835], [-80.8590478, 22.4744281], [-80.8607698, 22.4740266], [-80.8611265, 22.4739051], [-80.8612498, 22.4737494], [-80.8612391, 22.4736052], [-80.8609253, 22.4733127], [-80.8608663, 22.4730649], [-80.8611856, 22.4726321], [-80.8628619, 22.4710077], [-80.8633554, 22.4706607], [-80.8659679, 22.4699518], [-80.8663273, 22.4699865], [-80.867486, 22.4704079], [-80.8678562, 22.4704376], [-80.8686984, 22.4697883], [-80.8690417, 22.4697337], [-80.8692402, 22.4697536], [-80.8703023, 22.4702096], [-80.8707154, 22.47016], [-80.8709514, 22.4700262], [-80.8715329, 22.4687956], [-80.8720786, 22.4678661], [-80.8741224, 22.4662049], [-80.874846, 22.4659662], [-80.8751068, 22.4660368], [-80.8755112, 22.4661893], [-80.875935, 22.466224], [-80.8761554, 22.4661455], [-80.8766002, 22.4653069], [-80.8771741, 22.4647418], [-80.8775893, 22.4644645], [-80.879612, 22.4643823], [-80.880425, 22.4644889], [-80.8809185, 22.464603], [-80.8813454, 22.4644614], [-80.8815809, 22.4640955], [-80.8823508, 22.4632099], [-80.8831217, 22.4624244], [-80.8835793, 22.4617227], [-80.8843095, 22.4606345], [-80.8853066, 22.4594076], [-80.8859101, 22.45883], [-80.8862212, 22.4586689], [-80.8866075, 22.4585921], [-80.8867711, 22.4584954], [-80.8868301, 22.4583417], [-80.8869427, 22.4576576], [-80.8870608, 22.4575212], [-80.8874982, 22.4573811], [-80.8878815, 22.4572535], [-80.888029, 22.4571593], [-80.8883724, 22.4565991], [-80.8887827, 22.4563388], [-80.889118, 22.4561281], [-80.8892816, 22.4559249], [-80.8894399, 22.4553498], [-80.8895043, 22.4552333], [-80.8897483, 22.4550449], [-80.8903411, 22.4548887], [-80.8919558, 22.4543111], [-80.8950216, 22.4531758], [-80.896301, 22.45268], [-80.8973444, 22.4521644], [-80.8995009, 22.4507515], [-80.9027839, 22.4485898], [-80.9080517, 22.4450697], [-80.9128583, 22.4417775], [-80.9130943, 22.4415246], [-80.9174958, 22.435592], [-80.9201646, 22.4318261], [-80.9229291, 22.4281393], [-80.925807, 22.4242263], [-80.9268392, 22.42281], [-80.9282856, 22.4207366], [-80.9291661, 22.4195855], [-80.9295406, 22.4193127], [-80.929957, 22.4191396], [-80.9301031, 22.4190782], [-80.929844, 22.4189205], [-80.9284102, 22.4183582], [-80.9257074, 22.4182571], [-80.9226142, 22.4170729], [-80.9146916, 22.4136639], [-80.9078485, 22.4107194], [-80.9112382, 22.4056724], [-80.9177828, 22.4033514], [-80.9134698, 22.3988877], [-80.9191132, 22.3931542], [-80.9186947, 22.3924499], [-80.9186947, 22.3905254], [-80.9154439, 22.3884323], [-80.9121394, 22.3845833], [-80.9120107, 22.3819841], [-80.9104964, 22.3776056], [-80.912348, 22.3767574], [-80.9142238, 22.3769287], [-80.9171413, 22.377643], [-80.9198724, 22.3778145], [-80.9250742, 22.3730319], [-80.931876, 22.3688384], [-80.9429984, 22.3578514]]]}}